OBJECT_NAME,OBJECT_ID,EPOCH,MEAN_MOTION,ECCENTRICITY,INCLINATION,RA_OF_ASC_NODE,ARG_OF_PERICENTER,MEAN_ANOMALY,EPHEMERIS_TYPE,CLASSIFICATION_TYPE,NORAD_CAT_ID,ELEMENT_SET_NO,REV_AT_EPOCH,BSTAR,MEAN_MOTION_DOT,MEAN_MOTION_DDOT
OSCAR 7 (AO-7),1974-089B,2026-07-20T23:16:18.193728,12.53698634,.00126249,101.9907,215.5685,67.7036,319.5939,0,U,7530,999,36475,-.17640565E-4,-.49E-6,0
PHASE 3B (AO-10),1983-058B,2026-07-20T09:17:14.138016,2.05870004,.59997653,25.9413,214.0974,124.7892,306.9505,0,U,14129,999,29617,0,-.23E-6,0
UOSAT 2 (UO-11),1984-021B,2026-07-20T20:20:41.343072,14.90857629,.00091717,97.8081,167.0525,75.7217,284.5019,0,U,14781,999,26214,.99049432E-4,.92E-5,0
LUSAT (LO-19),1990-005G,2026-07-20T21:07:24.432960,14.34131756,.00126557,98.8846,224.6130,106.1213,254.1365,0,U,20442,999,90722,.32816999E-4,.45E-6,0
EYESAT A (AO-27),1993-061C,2026-07-20T21:54:28.200096,14.30950079,.00084239,98.6863,269.3111,9.6352,350.4991,0,U,22825,999,71182,.31734093E-4,.39E-6,0
ITAMSAT (IO-26),1993-061D,2026-07-20T17:49:00.412896,14.31377685,.00086197,98.6811,269.0617,352.8903,7.2156,0,U,22826,999,71211,.24923557E-4,.21E-6,0
RADIO ROSTO (RS15),1994-085A,2026-07-20T19:37:40.778112,11.27583651,.01571375,64.8143,248.8272,357.6705,2.3471,0,U,23439,999,29969,-.13223049E-3,-.47E-6,0
JAS-2 (FO-29),1996-046B,2026-07-20T10:23:27.209184,13.53275815,.0350108,98.5217,45.7476,10.3648,350.4474,0,U,24278,999,47766,-.13728913E-4,-.49E-6,0
TECHSAT 1B (GO-32),1998-043D,2026-07-20T22:06:52.593120,14.24434052,.00023065,99.0090,195.5342,105.8843,254.2589,0,U,25397,999,45613,.31066271E-4,.25E-6,0
ISS (ZARYA),1998-067A,2026-07-20T19:09:47.004480,15.49066413,.00068357,51.6312,133.7599,319.3995,40.6483,0,U,25544,999,57696,.10899996E-3,.5574E-4,0
PCSAT (NO-44),2001-043C,2026-07-20T08:03:28.656576,14.31966213,.0005868,67.0500,158.5337,267.0045,93.0386,0,U,26931,999,29519,.47439985E-4,.44E-6,0
SAUDISAT 1C (SO-50),2002-058C,2026-07-20T22:30:56.600640,14.83105633,.00743462,64.5521,24.5545,256.2283,103.0541,0,U,27607,999,26946,.84993258E-4,.57E-5,0
CUTE-1 (CO-55),2003-031E,2026-07-20T19:49:46.669440,14.24353809,.0010867,98.6745,209.9631,88.2698,271.9726,0,U,27844,999,19646,.93434227E-4,.172E-5,0
CUBESAT XI-IV (CO-57),2003-031J,2026-07-20T11:31:28.745184,14.23636281,.00106849,98.6776,209.3071,105.6000,254.6359,0,U,27848,999,19611,.7011484E-4,.116E-5,0
MOZHAETS 4 (RS22),2003-042A,2026-07-20T23:31:25.494816,14.73520922,.00116794,98.3483,27.2959,155.2099,4.3294,0,U,27939,999,22052,.13574261E-3,.829E-5,0
CUBESAT XI-V,2005-043F,2026-07-20T16:41:18.279744,14.72710537,.00153581,98.3023,358.0290,99.2356,261.0589,0,U,28895,999,10668,.12046578E-3,.717E-5,0
CUTE-1.7+APD II (CO-65),2008-021C,2026-07-20T22:06:15.078240,15.09730364,.00068635,97.8299,184.0527,275.3891,84.6554,0,U,32785,999,99028,.18484197E-3,.2914E-4,0
SEEDS II (CO-66),2008-021J,2026-07-20T22:34:04.220832,15.33789824,.00036969,97.7537,201.4796,144.6807,215.4681,0,U,32791,999,99246,.41244498E-3,.13404E-3,0
YUBILEINY (RS30),2008-025A,2026-07-20T21:34:55.897248,12.43181117,.00187705,82.5071,334.4691,235.8235,124.1066,0,U,32953,999,82388,.69253264E-3,.106E-5,0
KKS-1 (KISEKI),2009-002H,2026-07-20T22:06:43.038144,14.83197814,.00078881,98.1170,124.8978,170.2371,189.8997,0,U,33499,999,94119,.10093301E-3,.769E-5,0
SWISSCUBE,2009-051B,2026-07-20T23:11:16.793376,14.62537581,.00080521,98.4001,110.4390,103.7314,256.4784,0,U,35932,999,89409,.12696305E-3,.595E-5,0
BEESAT-1,2009-051C,2026-07-20T17:16:03.339840,14.61766931,.00063946,98.3928,109.7530,115.5252,244.6610,0,U,35933,999,89408,.91451004E-4,.407E-5,0
ITUPSAT1,2009-051E,2026-07-20T12:49:19.276896,14.60483294,.0008387,98.4013,108.7212,128.2729,231.9226,0,U,35935,999,89360,.87689E-4,.377E-5,0
XIWANG-1 (HOPE-1),2009-072B,2026-07-20T23:41:58.855200,13.16441784,.00077019,100.4044,155.2826,151.6384,208.5150,0,U,36122,999,79745,.10586732E-2,.36E-5,0
O/OREOS (USA 219),2010-062C,2026-07-20T21:07:43.364928,14.93865000,.00143792,71.9703,4.0077,354.1341,5.9659,0,U,37224,999,12167,.12316739E-3,.1247E-4,0
JUGNU,2011-058B,2026-07-20T10:00:31.103424,14.13784435,.00186392,19.9604,106.5369,83.7644,74.4048,0,U,37839,999,76373,.49013982E-4,.361E-5,0
SRMSAT,2011-058D,2026-07-20T08:49:17.450976,14.11581727,.00116043,19.9702,218.6370,208.2906,179.8338,0,U,37841,999,76251,.35427981E-4,.33E-5,0
STRAND-1,2013-009E,2026-07-20T11:22:55.596576,14.37180722,.00096444,98.3940,20.8921,126.9146,233.2926,0,U,39090,999,70184,.59206383E-4,.134E-5,0
ZACUBE-1 (TSHEPISOSAT),2013-066B,2026-07-20T20:47:42.553536,15.01347026,.00440791,97.7999,164.3670,137.0238,223.4444,0,U,39417,999,68578,.14536999E-3,.1847E-4,0
GOMX-1,2013-066Q,2026-07-20T23:00:36.195264,14.69550100,.01277636,97.6466,40.2903,329.6541,29.7311,0,U,39430,999,67487,.10068818E-3,.624E-5,0
